[{"OBJECT_NAME":"FLOCK 4G-7","OBJECT_ID":"2025-009R","EPOCH":"2026-03-09T19:11:56.638176","MEAN_MOTION":15.27141471,"ECCENTRICITY":0.00013963,"INCLINATION":97.3984,"RA_OF_ASC_NODE":150.827,"ARG_OF_PERICENTER":336.9783,"MEAN_ANOMALY":23.1393,"EPHEMERIS_TYPE":0,"CLASSIFICATION_TYPE":"U","NORAD_CAT_ID":62624,"ELEMENT_SET_NO":999,"REV_AT_EPOCH":6372,"BSTAR":0.0004316781,"MEAN_MOTION_DOT":0.00011422,"MEAN_MOTION_DDOT":0},{"OBJECT_NAME":"DELTA 1 DEB","OBJECT_ID":"1977-065GB","EPOCH":"2026-03-09T02:53:34.268064","MEAN_MOTION":14.47196386,"ECCENTRICITY":0.03689655,"INCLINATION":29.1068,"RA_OF_ASC_NODE":351.8301,"ARG_OF_PERICENTER":308.0029,"MEAN_ANOMALY":48.7782,"EPHEMERIS_TYPE":0,"CLASSIFICATION_TYPE":"U","NORAD_CAT_ID":19429,"ELEMENT_SET_NO":999,"REV_AT_EPOCH":87217,"BSTAR":0.0013714479,"MEAN_MOTION_DOT":0.0001237,"MEAN_MOTION_DDOT":0}]
